NORAD_CAT_ID,OBJECT_NAME,OBJECT_TYPE,EPOCH,MEAN_MOTION,ECCENTRICITY,INCLINATION,RA_OF_ASC_NODE,ARG_OF_PERICENTER,MEAN_ANOMALY,BSTAR,MEAN_MOTION_DOT,MEAN_MOTION_DDOT,TLE_LINE0,TLE_LINE1,TLE_LINE2,SEMIMAJOR_AXIS,PERIOD,APOGEE,PERIGEE,DECAYED
55777.0,STARLINK-5814,PAYLOAD,2023-12-01 18:45:39,14.98333229,0.0002582,69.999,154.3098,269.4481,90.6382,4.1726e-05,4.05e-06,0.0,0 STARLINK-5814,1 55777U 23028AN  23335.78170775  .00000405  00000-0  41726-4 0  9997,2 55777  69.9990 154.3098 0002582 269.4481  90.6382 14.98333229 42374,6950.183,96.107,573.842,570.253,0.0
55777.0,STARLINK-5814,PAYLOAD,2023-12-01 21:57:55,14.98335219,0.000268,69.9989,153.9733,266.5519,93.5333,5.722e-05,5.9e-06,0.0,0 STARLINK-5814,1 55777U 23028AN  23335.91522532  .00000590  00000-0  57220-4 0  9995,2 55777  69.9989 153.9733 0002680 266.5519  93.5333 14.98335219 42393,6950.177,96.107,573.904,570.179,0.0
55777.0,STARLINK-5814,PAYLOAD,2023-12-02 13:59:16,14.98330816,0.0002654,69.9988,152.2902,266.9578,93.1277,4.304e-05,4.21e-06,0.0,0 STARLINK-5814,1 55777U 23028AN  23336.58282706  .00000421  00000-0  43040-4 0  9993,2 55777  69.9988 152.2902 0002654 266.9578  93.1277 14.98330816 42494,6950.19,96.107,573.9,570.211,0.0
55777.0,STARLINK-5814,PAYLOAD,2023-12-02 18:47:40,14.98331676,0.0002576,69.999,151.7852,267.4578,92.6286,3.7331e-05,3.53e-06,0.0,0 STARLINK-5814,1 55777U 23028AN  23336.78310650  .00000353  00000-0  37331-4 0  9995,2 55777  69.9990 151.7852 0002576 267.4578  92.6286 14.98331676 42527,6950.188,96.107,573.843,570.262,0.0
55777.0,STARLINK-5814,PAYLOAD,2023-12-02 21:59:56,14.98331463,0.000266,69.9988,151.4483,271.3301,88.7553,3.3196e-05,3.03e-06,0.0,0 STARLINK-5814,1 55777U 23028AN  23336.91662676  .00000303  00000-0  33196-4 0  9998,2 55777  69.9988 151.4483 0002660 271.3301  88.7553 14.98331463 42542,6950.188,96.107,573.902,570.205,0.0
55777.0,STARLINK-5814,PAYLOAD,2023-12-03 14:01:17,14.98337782,0.0002328,69.9991,149.7658,264.8618,95.2275,-0.00028219,-3.459e-05,0.0,0 STARLINK-5814,1 55777U 23028AN  23337.58423253 -.00003459  00000-0 -28219-3 0  9994,2 55777  69.9991 149.7658 0002328 264.8618  95.2275 14.98337782 42644,6950.169,96.106,573.652,570.416,0.0
55777.0,STARLINK-5814,PAYLOAD,2023-12-03 20:25:50,14.98322966,0.0002512,69.9991,149.0926,269.0819,91.0052,-0.00012459,-1.579e-05,0.0,0 STARLINK-5814,1 55777U 23028AN  23337.85127736 -.00001579  00000-0 -12459-3 0  9991,2 55777  69.9991 149.0926 0002512 269.0819  91.0052 14.98322966 42689,6950.215,96.107,573.826,570.334,0.0
55777.0,STARLINK-5814,PAYLOAD,2023-12-04 10:51:02,14.98328077,0.0002647,69.9988,147.5775,270.839,89.2466,-4.5434e-05,-6.35e-06,0.0,0 STARLINK-5814,1 55777U 23028AN  23338.45211303 -.00000635  00000-0 -45434-4 0  9994,2 55777  69.9988 147.5775 0002647 270.8390  89.2466 14.98328077 42770,6950.199,96.107,573.904,570.224,0.0
55777.0,STARLINK-5814,PAYLOAD,2023-12-04 12:27:10,14.98328184,0.0002649,69.9988,147.4092,270.129,89.9565,-4.3579e-05,-6.13e-06,0.0,0 STARLINK-5814,1 55777U 23028AN  23338.51887293 -.00000613  00000-0 -43579-4 0  9992,2 55777  69.9988 147.4092 0002649 270.1290  89.9565 14.98328184 42782,6950.199,96.107,573.905,570.222,0.0
55777.0,STARLINK-5814,PAYLOAD,2023-12-05 10:53:03,14.98325669,0.0002855,69.9984,145.0523,272.0764,88.0068,6.9635e-05,7.38e-06,0.0,0 STARLINK-5814,1 55777U 23028AN  23339.45351274  .00000738  00000-0  69635-4 0  9998,2 55777  69.9984 145.0523 0002855 272.0764  88.0068 14.98325669 42926,6950.206,96.107,574.056,570.087,0.0
55777.0,STARLINK-5814,PAYLOAD,2023-12-05 12:29:11,14.9832682,0.0002851,69.9985,144.884,271.3686,88.7146,8.1677e-05,8.82e-06,0.0,0 STARLINK-5814,1 55777U 23028AN  23339.52027179  .00000882  00000-0  81677-4 0  9990,2 55777  69.9985 144.8840 0002851 271.3686  88.7146 14.98326820 42932,6950.203,96.107,574.049,570.086,0.0
55777.0,STARLINK-5814,PAYLOAD,2023-12-06 10:55:04,14.98331597,0.000294,70.0018,142.5305,272.7586,87.3236,4.1476e-05,4.02e-06,0.0,0 STARLINK-5814,1 55777U 23028AN  23340.45491096  .00000402  00000-0  41476-4 0  9998,2 55777  70.0018 142.5305 0002940 272.7586  87.3236 14.98331597 43074,6950.188,96.107,574.096,570.01,0.0
55777.0,STARLINK-5814,PAYLOAD,2023-12-06 12:31:12,14.98331595,0.0002807,70.0001,142.3607,271.0212,89.0625,4.2866e-05,4.19e-06,0.0,0 STARLINK-5814,1 55777U 23028AN  23340.52167060  .00000419  00000-0  42866-4 0  9999,2 55777  70.0001 142.3607 0002807 271.0212  89.0625 14.98331595 43089,6950.188,96.107,574.004,570.102,0.0
55777.0,STARLINK-5814,PAYLOAD,2023-12-06 20:31:52,14.98331649,0.0002862,69.9997,141.5187,271.9174,88.1658,3.8821e-05,3.7e-06,0.0,0 STARLINK-5814,1 55777U 23028AN  23340.85547018  .00000370  00000-0  38821-4 0  9992,2 55777  69.9997 141.5187 0002862 271.9174  88.1658 14.98331649 43133,6950.188,96.107,574.042,570.064,0.0
55777.0,STARLINK-5814,PAYLOAD,2023-12-07 12:33:13,14.98333547,0.0002822,69.9987,139.8349,271.4473,88.6363,-5.8179e-06,-1.62e-06,0.0,0 STARLINK-5814,1 55777U 23028AN  23341.52306889 -.00000162  00000-0 -58179-5 0  9996,2 55777  69.9987 139.8349 0002822 271.4473  88.6363 14.98333547 43233,6950.182,96.107,574.008,570.086,0.0
55777.0,STARLINK-5814,PAYLOAD,2023-12-08 12:35:13,14.98333069,0.0002863,69.9981,137.3082,272.2867,87.7964,-9.0465e-06,-2.01e-06,0.0,0 STARLINK-5814,1 55777U 23028AN  23342.52446670 -.00000201  00000-0 -90465-5 0  9998,2 55777  69.9981 137.3082 0002863 272.2867  87.7964 14.98333069 43387,6950.183,96.107,574.038,570.059,0.0
55777.0,STARLINK-5814,PAYLOAD,2023-12-08 20:35:54,14.98332629,0.0002872,69.9983,136.4667,272.5239,87.5591,-1.2617e-05,-2.44e-06,0.0,0 STARLINK-5814,1 55777U 23028AN  23342.85826635 -.00000244  00000-0 -12617-4 0  9996,2 55777  69.9983 136.4667 0002872 272.5239  87.5591 14.98332629 43435,6950.185,96.107,574.046,570.054,0.0
55777.0,STARLINK-5814,PAYLOAD,2023-12-09 12:37:15,14.98329345,0.000281,69.9986,134.7842,272.5904,87.4933,-2.5802e-05,-4.01e-06,0.0,0 STARLINK-5814,1 55777U 23028AN  23343.52586811 -.00000401  00000-0 -25802-4 0  9995,2 55777  69.9986 134.7842 0002810 272.5904  87.4933 14.98329345 43536,6950.195,96.107,574.013,570.107,0.0
55777.0,STARLINK-5814,PAYLOAD,2023-12-10 14:15:24,14.98328596,0.0002746,69.999,132.0912,266.104,93.9806,-1.7099e-05,-2.97e-06,0.0,0 STARLINK-5814,1 55777U 23028AN  23344.59402788 -.00000297  00000-0 -17099-4 0  9995,2 55777  69.9990 132.0912 0002746 266.1040  93.9806 14.98328596 43693,6950.197,96.107,573.971,570.154,0.0
55777.0,STARLINK-5814,PAYLOAD,2023-12-10 19:03:48,14.98328063,0.0002759,69.9995,131.5868,269.0852,90.9991,-2.4975e-05,-3.91e-06,0.0,0 STARLINK-5814,1 55777U 23028AN  23344.79430886 -.00000391  00000-0 -24975-4 0  9993,2 55777  69.9995 131.5868 0002759 269.0852  90.9991 14.98328063 43724,6950.199,96.107,573.981,570.146,0.0
55777.0,STARLINK-5814,PAYLOAD,2023-12-11 14:17:24,14.98330567,0.0003036,69.9989,129.5666,269.8071,90.274,3.5594e-05,3.32e-06,0.0,0 STARLINK-5814,1 55777U 23028AN  23345.59542462  .00000332  00000-0  35594-4 0  9998,2 55777  69.9989 129.5666 0003036 269.8071  90.2740 14.98330567 43840,6950.191,96.107,574.166,569.946,0.0
55777.0,STARLINK-5814,PAYLOAD,2023-12-11 19:05:48,14.98332068,0.0002982,69.9991,129.0619,268.7898,91.292,5.1516e-05,5.22e-06,0.0,0 STARLINK-5814,1 55777U 23028AN  23345.79570296  .00000522  00000-0  51516-4 0  9999,2 55777  69.9991 129.0619 0002982 268.7898  91.2920 14.98332068 43872,6950.186,96.107,574.124,569.979,0.0
55777.0,STARLINK-5814,PAYLOAD,2023-12-12 11:07:09,14.98326937,0.0002875,69.9995,127.3795,265.4342,94.6489,-1.0974e-05,-2.24e-06,0.0,0 STARLINK-5814,1 55777U 23028AN  23346.46330762 -.00000224  00000-0 -10974-4 0  9990,2 55777  69.9995 127.3795 0002875 265.4342  94.6489 14.98326937 43977,6950.202,96.107,574.066,570.069,0.0
55777.0,STARLINK-5814,PAYLOAD,2023-12-12 14:19:25,14.98326535,0.0002886,69.9996,127.0427,265.3457,94.7372,-1.667e-05,-2.92e-06,0.0,0 STARLINK-5814,1 55777U 23028AN  23346.59682817 -.00000292  00000-0 -16670-4 0  9999,2 55777  69.9996 127.0427 0002886 265.3457  94.7372 14.98326535 43993,6950.204,96.107,574.074,570.063,0.0
55777.0,STARLINK-5814,PAYLOAD,2023-12-12 19:07:50,14.98327383,0.0002867,69.9997,126.538,264.3202,95.763,-5.1854e-06,-1.55e-06,0.0,0 STARLINK-5814,1 55777U 23028AN  23346.79710756 -.00000155  00000-0 -51854-5 0  9997,2 55777  69.9997 126.5380 0002867 264.3202  95.7630 14.98327383 44027,6950.201,96.107,574.059,570.073,0.0
55777.0,STARLINK-5814,PAYLOAD,2023-12-13 11:09:10,14.98334791,0.0002888,69.9996,124.8548,263.3536,96.7294,9.851e-06,2.5e-07,0.0,0 STARLINK-5814,1 55777U 23028AN  23347.46470127  .00000025  00000-0  98510-5 0  9991,2 55777  69.9996 124.8548 0002888 263.3536  96.7294 14.98334791 44124,6950.178,96.107,574.05,570.036,0.0
55777.0,STARLINK-5814,PAYLOAD,2023-12-13 14:21:26,14.9833462,0.0002893,69.9997,124.5181,263.1903,96.8927,8.28e-06,6e-08,0.0,0 STARLINK-5814,1 55777U 23028AN  23347.59822099  .00000006  00000-0  82800-5 0  9998,2 55777  69.9997 124.5181 0002893 263.1903  96.8927 14.98334620 44144,6950.179,96.107,574.054,570.033,0.0
55777.0,STARLINK-5814,PAYLOAD,2023-12-13 19:09:50,14.98335644,0.0002877,69.9997,124.0133,262.9113,97.1719,2.0721e-05,1.54e-06,0.0,0 STARLINK-5814,1 55777U 23028AN  23347.79849935  .00000154  00000-0  20721-4 0  9995,2 55777  69.9997 124.0133 0002877 262.9113  97.1719 14.98335644 44171,6950.175,96.107,574.04,570.041,0.0
55777.0,STARLINK-5814,PAYLOAD,2023-12-14 11:11:11,14.98326138,0.0002708,70.0005,122.3318,247.8814,112.2058,5.0549e-05,5.1e-06,0.0,0 STARLINK-5814,1 55777U 23028AN  23348.46610340  .00000510  00000-0  50549-4 0  9993,2 55777  70.0005 122.3318 0002708 247.8814 112.2058 14.98326138 44277,6950.205,96.107,573.952,570.188,0.0
55777.0,STARLINK-5814,PAYLOAD,2023-12-14 14:23:28,14.9831456,0.0003017,69.9994,121.993,266.8814,93.2,-0.00015582,-1.951e-05,0.0,0 STARLINK-5814,1 55777U 23028AN  23348.59963706 -.00001951  00000-0 -15582-3 0  9993,2 55777  69.9994 121.9930 0003017 266.8814  93.2000 14.98314560 44294,6950.241,96.108,574.203,570.009,0.0
